{"fetched_at":"2026-07-19T07:05:19.536Z","source":"https://celestrak.org/NORAD/elements/gp.php?NAME=KINEIS&FORMAT=JSON","constellation":"kineis","records":[{"OBJECT_NAME":"KINEIS-1B","OBJECT_ID":"2024-114A","EPOCH":"2026-07-18T19:32:20.833728","CLASSIFICATION_TYPE":"U","MEAN_MOTION":14.80669618,"ECCENTRICITY":0.000268,"INCLINATION":97.9828,"RA_OF_ASC_NODE":223.8485,"ARG_OF_PERICENTER":30.2329,"MEAN_ANOMALY":329.9037,"EPHEMERIS_TYPE":0,"NORAD_CAT_ID":60079,"ELEMENT_SET_NO":999,"REV_AT_EPOCH":11208,"BSTAR":0.000042437,"MEAN_MOTION_DOT":0.00000273,"MEAN_MOTION_DDOT":0},{"OBJECT_NAME":"KINEIS-1C","OBJECT_ID":"2024-114C","EPOCH":"2026-07-18T20:20:46.470048","CLASSIFICATION_TYPE":"U","MEAN_MOTION":14.80671482,"ECCENTRICITY":0.0002571,"INCLINATION":97.9842,"RA_OF_ASC_NODE":223.7382,"ARG_OF_PERICENTER":90.3836,"MEAN_ANOMALY":269.7671,"EPHEMERIS_TYPE":0,"NORAD_CAT_ID":60081,"ELEMENT_SET_NO":999,"REV_AT_EPOCH":11206,"BSTAR":0.000043836,"MEAN_MOTION_DOT":0.00000284,"MEAN_MOTION_DDOT":0},{"OBJECT_NAME":"KINEIS-1D","OBJECT_ID":"2024-114D","EPOCH":"2026-07-18T19:56:25.655136","CLASSIFICATION_TYPE":"U","MEAN_MOTION":14.76364936,"ECCENTRICITY":0.000298,"INCLINATION":97.9879,"RA_OF_ASC_NODE":219.6216,"ARG_OF_PERICENTER":92.8505,"MEAN_ANOMALY":267.3046,"EPHEMERIS_TYPE":0,"NORAD_CAT_ID":60082,"ELEMENT_SET_NO":999,"REV_AT_EPOCH":11179,"BSTAR":0.000042135,"MEAN_MOTION_DOT":0.00000242,"MEAN_MOTION_DDOT":0},{"OBJECT_NAME":"KINEIS-1E","OBJECT_ID":"2024-114E","EPOCH":"2026-07-18T20:46:21.391104","CLASSIFICATION_TYPE":"U","MEAN_MOTION":14.80697135,"ECCENTRICITY":0.0004208,"INCLINATION":97.8944,"RA_OF_ASC_NODE":222.7846,"ARG_OF_PERICENTER":102.1974,"MEAN_ANOMALY":257.971,"EPHEMERIS_TYPE":0,"NORAD_CAT_ID":60083,"ELEMENT_SET_NO":999,"REV_AT_EPOCH":11207,"BSTAR":0.000048657,"MEAN_MOTION_DOT":0.00000322,"MEAN_MOTION_DDOT":0},{"OBJECT_NAME":"KINEIS-1A","OBJECT_ID":"2024-114F","EPOCH":"2026-07-18T19:57:14.415840","CLASSIFICATION_TYPE":"U","MEAN_MOTION":14.80685,"ECCENTRICITY":0.0005201,"INCLINATION":97.8918,"RA_OF_ASC_NODE":222.8434,"ARG_OF_PERICENTER":53.629,"MEAN_ANOMALY":306.5401,"EPHEMERIS_TYPE":0,"NORAD_CAT_ID":60084,"ELEMENT_SET_NO":999,"REV_AT_EPOCH":11207,"BSTAR":0.000043963,"MEAN_MOTION_DOT":0.00000286,"MEAN_MOTION_DDOT":0},{"OBJECT_NAME":"KINEIS-3C","OBJECT_ID":"2024-172A","EPOCH":"2026-07-18T19:27:21.532032","CLASSIFICATION_TYPE":"U","MEAN_MOTION":14.72296369,"ECCENTRICITY":0.0002567,"INCLINATION":98.0433,"RA_OF_ASC_NODE":289.3743,"ARG_OF_PERICENTER":77.046,"MEAN_ANOMALY":283.1033,"EPHEMERIS_TYPE":0,"NORAD_CAT_ID":61220,"ELEMENT_SET_NO":999,"REV_AT_EPOCH":9772,"BSTAR":0.00014144,"MEAN_MOTION_DOT":0.00000844,"MEAN_MOTION_DDOT":0},{"OBJECT_NAME":"KINEIS-3D","OBJECT_ID":"2024-172B","EPOCH":"2026-07-18T16:01:56.978112","CLASSIFICATION_TYPE":"U","MEAN_MOTION":14.72292536,"ECCENTRICITY":0.0002356,"INCLINATION":98.0438,"RA_OF_ASC_NODE":289.2439,"ARG_OF_PERICENTER":77.7857,"MEAN_ANOMALY":282.3614,"EPHEMERIS_TYPE":0,"NORAD_CAT_ID":61221,"ELEMENT_SET_NO":999,"REV_AT_EPOCH":9798,"BSTAR":0.000078884,"MEAN_MOTION_DOT":0.00000449,"MEAN_MOTION_DDOT":0},{"OBJECT_NAME":"KINEIS-3E","OBJECT_ID":"2024-172C","EPOCH":"2026-07-18T18:53:06.990144","CLASSIFICATION_TYPE":"U","MEAN_MOTION":14.72282849,"ECCENTRICITY":0.0001706,"INCLINATION":98.0428,"RA_OF_ASC_NODE":289.3421,"ARG_OF_PERICENTER":86.8238,"MEAN_ANOMALY":273.3164,"EPHEMERIS_TYPE":0,"NORAD_CAT_ID":61222,"ELEMENT_SET_NO":999,"REV_AT_EPOCH":9800,"BSTAR":0.00013731,"MEAN_MOTION_DOT":0.00000818,"MEAN_MOTION_DDOT":0},{"OBJECT_NAME":"KINEIS-3A","OBJECT_ID":"2024-172D","EPOCH":"2026-07-18T18:29:10.025088","CLASSIFICATION_TYPE":"U","MEAN_MOTION":14.72315832,"ECCENTRICITY":0.0001934,"INCLINATION":98.0425,"RA_OF_ASC_NODE":289.4238,"ARG_OF_PERICENTER":34.9067,"MEAN_ANOMALY":325.2267,"EPHEMERIS_TYPE":0,"NORAD_CAT_ID":61223,"ELEMENT_SET_NO":999,"REV_AT_EPOCH":9742,"BSTAR":0.00012856,"MEAN_MOTION_DOT":0.00000763,"MEAN_MOTION_DDOT":0},{"OBJECT_NAME":"KINEIS-3B","OBJECT_ID":"2024-172E","EPOCH":"2026-07-18T18:04:11.844768","CLASSIFICATION_TYPE":"U","MEAN_MOTION":14.72302002,"ECCENTRICITY":0.0001336,"INCLINATION":98.0419,"RA_OF_ASC_NODE":289.4286,"ARG_OF_PERICENTER":19.8612,"MEAN_ANOMALY":340.2647,"EPHEMERIS_TYPE":0,"NORAD_CAT_ID":61224,"ELEMENT_SET_NO":999,"REV_AT_EPOCH":9799,"BSTAR":0.0001288,"MEAN_MOTION_DOT":0.00000764,"MEAN_MOTION_DDOT":0},{"OBJECT_NAME":"KINEIS-5C","OBJECT_ID":"2024-219A","EPOCH":"2026-07-18T20:47:03.573312","CLASSIFICATION_TYPE":"U","MEAN_MOTION":14.72317067,"ECCENTRICITY":0.0004449,"INCLINATION":97.9072,"RA_OF_ASC_NODE":357.8435,"ARG_OF_PERICENTER":162.6028,"MEAN_ANOMALY":197.5333,"EPHEMERIS_TYPE":0,"NORAD_CAT_ID":62081,"ELEMENT_SET_NO":999,"REV_AT_EPOCH":8841,"BSTAR":0.000050196,"MEAN_MOTION_DOT":0.00000269,"MEAN_MOTION_DDOT":0},{"OBJECT_NAME":"KINEIS-5D","OBJECT_ID":"2024-219B","EPOCH":"2026-07-18T21:24:35.648928","CLASSIFICATION_TYPE":"U","MEAN_MOTION":14.72497066,"ECCENTRICITY":0.0005569,"INCLINATION":97.9184,"RA_OF_ASC_NODE":357.9428,"ARG_OF_PERICENTER":157.083,"MEAN_ANOMALY":203.0627,"EPHEMERIS_TYPE":0,"NORAD_CAT_ID":62082,"ELEMENT_SET_NO":999,"REV_AT_EPOCH":8842,"BSTAR":0.000070957,"MEAN_MOTION_DOT":0.00000402,"MEAN_MOTION_DDOT":0},{"OBJECT_NAME":"KINEIS-5E","OBJECT_ID":"2024-219C","EPOCH":"2026-07-18T20:13:06.351168","CLASSIFICATION_TYPE":"U","MEAN_MOTION":14.72301608,"ECCENTRICITY":0.0007034,"INCLINATION":97.9028,"RA_OF_ASC_NODE":357.9129,"ARG_OF_PERICENTER":153.9301,"MEAN_ANOMALY":206.2262,"EPHEMERIS_TYPE":0,"NORAD_CAT_ID":62083,"ELEMENT_SET_NO":999,"REV_AT_EPOCH":8842,"BSTAR":0.000050105,"MEAN_MOTION_DOT":0.00000268,"MEAN_MOTION_DDOT":0},{"OBJECT_NAME":"KINEIS-5A","OBJECT_ID":"2024-219D","EPOCH":"2026-07-18T19:41:50.379072","CLASSIFICATION_TYPE":"U","MEAN_MOTION":14.72271417,"ECCENTRICITY":0.0004083,"INCLINATION":97.897,"RA_OF_ASC_NODE":358.1688,"ARG_OF_PERICENTER":187.6523,"MEAN_ANOMALY":172.4623,"EPHEMERIS_TYPE":0,"NORAD_CAT_ID":62084,"ELEMENT_SET_NO":999,"REV_AT_EPOCH":8842,"BSTAR":0.000057301,"MEAN_MOTION_DOT":0.00000314,"MEAN_MOTION_DDOT":0},{"OBJECT_NAME":"KINEIS-5B","OBJECT_ID":"2024-219E","EPOCH":"2026-07-18T18:59:14.427744","CLASSIFICATION_TYPE":"U","MEAN_MOTION":14.78389289,"ECCENTRICITY":0.0002706,"INCLINATION":98.0094,"RA_OF_ASC_NODE":3.4475,"ARG_OF_PERICENTER":138.4549,"MEAN_ANOMALY":221.6868,"EPHEMERIS_TYPE":0,"NORAD_CAT_ID":62085,"ELEMENT_SET_NO":999,"REV_AT_EPOCH":8867,"BSTAR":0.000069944,"MEAN_MOTION_DOT":0.00000457,"MEAN_MOTION_DDOT":0},{"OBJECT_NAME":"KINEIS-2C","OBJECT_ID":"2025-028B","EPOCH":"2026-07-18T16:41:49.151328","CLASSIFICATION_TYPE":"U","MEAN_MOTION":14.73434463,"ECCENTRICITY":0.0004497,"INCLINATION":98.1227,"RA_OF_ASC_NODE":254.1226,"ARG_OF_PERICENTER":150.3756,"MEAN_ANOMALY":209.7707,"EPHEMERIS_TYPE":0,"NORAD_CAT_ID":62929,"ELEMENT_SET_NO":999,"REV_AT_EPOCH":7725,"BSTAR":0.00010979,"MEAN_MOTION_DOT":0.00000661,"MEAN_MOTION_DDOT":0}]}
