KINEIS-1B               
1 60079U 24114A   26199.81413002  .00000273  00000+0  42437-4 0  9995
2 60079  97.9828 223.8485 0002680  30.2329 329.9037 14.80669618112088
KINEIS-1C               
1 60081U 24114C   26199.84776007  .00000284  00000+0  43836-4 0  9994
2 60081  97.9842 223.7382 0002571  90.3836 269.7671 14.80671482112066
KINEIS-1D               
1 60082U 24114D   26199.83085249  .00000242  00000+0  42135-4 0  9990
2 60082  97.9879 219.6216 0002980  92.8505 267.3046 14.76364936111798
KINEIS-1E               
1 60083U 24114E   26199.86552536  .00000322  00000+0  48657-4 0  9996
2 60083  97.8944 222.7846 0004208 102.1974 257.9710 14.80697135112075
KINEIS-1A               
1 60084U 24114F   26199.83141685  .00000286  00000+0  43963-4 0  9997
2 60084  97.8918 222.8434 0005201  53.6290 306.5401 14.80685000112072
KINEIS-3C               
1 61220U 24172A   26199.81066588  .00000844  00000+0  14144-3 0  9998
2 61220  98.0433 289.3743 0002567  77.0460 283.1033 14.72296369 97724
KINEIS-3D               
1 61221U 24172B   26199.66802058  .00000449  00000+0  78884-4 0  9995
2 61221  98.0438 289.2439 0002356  77.7857 282.3614 14.72292536 97980
KINEIS-3E               
1 61222U 24172C   26199.78688646  .00000818  00000+0  13731-3 0  9993
2 61222  98.0428 289.3421 0001706  86.8238 273.3164 14.72282849 98004
KINEIS-3A               
1 61223U 24172D   26199.77025492  .00000763  00000+0  12856-3 0  9993
2 61223  98.0425 289.4238 0001934  34.9067 325.2267 14.72315832 97421
KINEIS-3B               
1 61224U 24172E   26199.75291487  .00000764  00000+0  12880-3 0  9999
2 61224  98.0419 289.4286 0001336  19.8612 340.2647 14.72302002 97998
KINEIS-5C               
1 62081U 24219A   26199.86601358  .00000269  00000+0  50196-4 0  9990
2 62081  97.9072 357.8435 0004449 162.6028 197.5333 14.72317067 88414
KINEIS-5D               
1 62082U 24219B   26199.89207927  .00000402  00000+0  70957-4 0  9994
2 62082  97.9184 357.9428 0005569 157.0830 203.0627 14.72497066 88423
KINEIS-5E               
1 62083U 24219C   26199.84243462  .00000268  00000+0  50105-4 0  9997
2 62083  97.9028 357.9129 0007034 153.9301 206.2262 14.72301608 88422
KINEIS-5A               
1 62084U 24219D   26199.82072198  .00000314  00000+0  57301-4 0  9999
2 62084  97.8970 358.1688 0004083 187.6523 172.4623 14.72271417 88421
KINEIS-5B               
1 62085U 24219E   26199.79113921  .00000457  00000+0  69944-4 0  9990
2 62085  98.0094   3.4475 0002706 138.4549 221.6868 14.78389289 88676
KINEIS-2C               
1 62929U 25028B   26199.69570777  .00000661  00000+0  10979-3 0  9991
2 62929  98.1227 254.1226 0004497 150.3756 209.7707 14.73434463 77254
